[{"OBJECT_NAME":"STARLINK-33829","OBJECT_ID":"2025-071D","EPOCH":"2026-03-09T12:28:23.947968","MEAN_MOTION":15.3020939,"ECCENTRICITY":0.00011826,"INCLINATION":53.1599,"RA_OF_ASC_NODE":140.7355,"ARG_OF_PERICENTER":72.3028,"MEAN_ANOMALY":287.8101,"EPHEMERIS_TYPE":0,"CLASSIFICATION_TYPE":"U","NORAD_CAT_ID":63496,"ELEMENT_SET_NO":999,"REV_AT_EPOCH":5268,"BSTAR":0.00080040063,"MEAN_MOTION_DOT":0.00023428,"MEAN_MOTION_DDOT":0},{"OBJECT_NAME":"GEOSCAN 2 (RS92S2)","OBJECT_ID":"2025-155Q","EPOCH":"2026-03-09T23:01:48.939744","MEAN_MOTION":15.28709337,"ECCENTRICITY":0.00085277,"INCLINATION":97.4463,"RA_OF_ASC_NODE":37.5259,"ARG_OF_PERICENTER":140.9505,"MEAN_ANOMALY":219.2352,"EPHEMERIS_TYPE":0,"CLASSIFICATION_TYPE":"U","NORAD_CAT_ID":64890,"ELEMENT_SET_NO":999,"REV_AT_EPOCH":6561,"BSTAR":0.00051551761,"MEAN_MOTION_DOT":0.00014341,"MEAN_MOTION_DDOT":0}]
